[
    {
        "Altitude(m)": 553763.0387592503,
        "Argument of Periapsis(deg)": 0.033114955553567506,
        "Eccentricity": 0.0,
        "Inclination(deg)": 53.0,
        "Latitude(deg)": 4.636639612519232,
        "Longitude(deg)": 37.52772359213696,
        "Mean Anomaly(deg)": -185.90553566211202,
        "RAAN(deg)": 324.95071684264,
        "Satellite Name": "Starlink Shell 1 1437",
        "Satellite Number": 1437,
        "Semi-Major Axis(m)": 6931778.249405717,
        "Time(s)": 950
    },
    {
        "Altitude(m)": 553803.9159721122,
        "Argument of Periapsis(deg)": 0.03346353403307874,
        "Eccentricity": 0.0,
        "Inclination(deg)": 53.0,
        "Latitude(deg)": 4.13348868449986,
        "Longitude(deg)": 37.86534878410973,
        "Mean Anomaly(deg)": -185.27870445855538,
        "RAAN(deg)": 324.9501980725626,
        "Satellite Name": "Starlink Shell 1 1437",
        "Satellite Number": 1437,
        "Semi-Major Axis(m)": 6931778.249405717,
        "Time(s)": 960
    },
    {
        "Altitude(m)": 553847.6093237562,
        "Argument of Periapsis(deg)": 0.03381211251258998,
        "Eccentricity": 0.0,
        "Inclination(deg)": 53.0,
        "Latitude(deg)": 3.6301582658504907,
        "Longitude(deg)": 38.20249093329704,
        "Mean Anomaly(deg)": -184.6518732549986,
        "RAAN(deg)": 324.94967930248515,
        "Satellite Name": "Starlink Shell 1 1437",
        "Satellite Number": 1437,
        "Semi-Major Axis(m)": 6931778.249405717,
        "Time(s)": 970
    },
    {
        "Altitude(m)": 553894.1212482413,
        "Argument of Periapsis(deg)": 0.034160690992101214,
        "Eccentricity": 0.0,
        "Inclination(deg)": 53.0,
        "Latitude(deg)": 3.1266716266774504,
        "Longitude(deg)": 38.53920835714237,
        "Mean Anomaly(deg)": -184.02504205144191,
        "RAAN(deg)": 324.94916053240763,
        "Satellite Name": "Starlink Shell 1 1437",
        "Satellite Number": 1437,
        "Semi-Major Axis(m)": 6931778.249405717,
        "Time(s)": 980
    },
    {
        "Altitude(m)": 553943.4528334319,
        "Argument of Periapsis(deg)": 0.034509269471612446,
        "Eccentricity": 0.0,
        "Inclination(deg)": 53.0,
        "Latitude(deg)": 2.6230519484006236,
        "Longitude(deg)": 38.875559689339816,
        "Mean Anomaly(deg)": -183.3982108478852,
        "RAAN(deg)": 324.94864176233017,
        "Satellite Name": "Starlink Shell 1 1437",
        "Satellite Number": 1437,
        "Semi-Major Axis(m)": 6931778.249405717,
        "Time(s)": 990
    }
]